{
  "type": "FeatureCollection",
  "features": [
    {
      "type": "Feature",
      "properties": {
        "norad_id": 34637,
        "name": "COSMOS 2251 DEB",
        "group": "cosmos-2251-debris",
        "lat": 50.12863434028324,
        "lon": 102.60178381992328,
        "alt_km": 692.0827511238858,
        "timestamp": "2025-12-22T11:33:20.834914+00:00",
        "meta_object_name": "COSMOS 2251 DEB",
        "meta_object_id": "1993-036XJ",
        "meta_epoch": "2025-12-20T17:15:15.768864",
        "meta_mean_motion": 14.60159764,
        "meta_eccentricity": 0.00491538,
        "meta_inclination": 74.0498,
        "meta_ra_of_asc_node": 85.9391,
        "meta_arg_of_pericenter": 154.3683,
        "meta_mean_anomaly": 357.9814,
        "meta_ephemeris_type": 0,
        "meta_classification_type": "U",
        "meta_norad_cat_id": 34637,
        "meta_element_set_no": 999,
        "meta_rev_at_epoch": 88643,
        "meta_bstar": 0.00053669704,
        "meta_mean_motion_dot": 2.599e-05,
        "meta_mean_motion_ddot": 0,
        "tle_line1": "1 34637U 93036XJ  25354.71893251  .00002599  00000+0  53670-3 0  9997",
        "tle_line2": "2 34637  74.0498  85.9391 0049153 154.3683 357.9814 14.60159764886433"
      },
      "geometry": {
        "type": "Point",
        "coordinates": [
          102.60178381992328,
          50.12863434028324
        ]
      }
    },
    {
      "type": "Feature",
      "properties": {
        "norad_id": 34641,
        "name": "COSMOS 2251 DEB",
        "group": "cosmos-2251-debris",
        "lat": 55.32457930022314,
        "lon": -141.709199828435,
        "alt_km": 724.3736262814191,
        "timestamp": "2025-12-22T11:33:20.834924+00:00",
        "meta_object_name": "COSMOS 2251 DEB",
        "meta_object_id": "1993-036XN",
        "meta_epoch": "2025-12-21T22:35:07.787040",
        "meta_mean_motion": 14.52063292,
        "meta_eccentricity": 0.0019015,
        "meta_inclination": 73.8389,
        "meta_ra_of_asc_node": 64.103,
        "meta_arg_of_pericenter": 336.8289,
        "meta_mean_anomaly": 200.1727,
        "meta_ephemeris_type": 0,
        "meta_classification_type": "U",
        "meta_norad_cat_id": 34641,
        "meta_element_set_no": 999,
        "meta_rev_at_epoch": 88389,
        "meta_bstar": 0.00076878,
        "meta_mean_motion_dot": 3.089e-05,
        "meta_mean_motion_ddot": 0,
        "tle_line1": "1 34641U 93036XN  25355.94106235  .00003089  00000+0  76878-3 0  9997",
        "tle_line2": "2 34641  73.8389  64.1030 0019015 336.8289 200.1727 14.52063292883896"
      },
      "geometry": {
        "type": "Point",
        "coordinates": [
          -141.709199828435,
          55.32457930022314
        ]
      }
    },
    {
      "type": "Feature",
      "properties": {
        "norad_id": 34642,
        "name": "COSMOS 2251 DEB",
        "group": "cosmos-2251-debris",
        "lat": 32.18960473673273,
        "lon": 132.52466314939196,
        "alt_km": 745.3997017173078,
        "timestamp": "2025-12-22T11:33:20.834935+00:00",
        "meta_object_name": "COSMOS 2251 DEB",
        "meta_object_id": "1993-036XP",
        "meta_epoch": "2025-12-21T21:17:14.430048",
        "meta_mean_motion": 13.98997398,
        "meta_eccentricity": 0.0206582,
        "meta_inclination": 74.0044,
        "meta_ra_of_asc_node": 323.9565,
        "meta_arg_of_pericenter": 141.6316,
        "meta_mean_anomaly": 251.3193,
        "meta_ephemeris_type": 0,
        "meta_classification_type": "U",
        "meta_norad_cat_id": 34642,
        "meta_element_set_no": 999,
        "meta_rev_at_epoch": 85421,
        "meta_bstar": 0.0007428,
        "meta_mean_motion_dot": 1.266e-05,
        "meta_mean_motion_ddot": 0,
        "tle_line1": "1 34642U 93036XP  25355.88697257  .00001266  00000+0  74280-3 0  9990",
        "tle_line2": "2 34642  74.0044 323.9565 0206582 141.6316 251.3193 13.98997398854218"
      },
      "geometry": {
        "type": "Point",
        "coordinates": [
          132.52466314939196,
          32.18960473673273
        ]
      }
    },
    {
      "type": "Feature",
      "properties": {
        "norad_id": 34671,
        "name": "COSMOS 2251 DEB",
        "group": "cosmos-2251-debris",
        "lat": 28.13688396974182,
        "lon": 124.29886892249498,
        "alt_km": 676.181465312312,
        "timestamp": "2025-12-22T11:33:20.834945+00:00",
        "meta_object_name": "COSMOS 2251 DEB",
        "meta_object_id": "1993-036XR",
        "meta_epoch": "2025-12-22T02:23:20.292288",
        "meta_mean_motion": 14.67083344,
        "meta_eccentricity": 0.0010753,
        "meta_inclination": 74.0273,
        "meta_ra_of_asc_node": 116.2253,
        "meta_arg_of_pericenter": 197.1927,
        "meta_mean_anomaly": 335.865,
        "meta_ephemeris_type": 0,
        "meta_classification_type": "U",
        "meta_norad_cat_id": 34671,
        "meta_element_set_no": 999,
        "meta_rev_at_epoch": 88434,
        "meta_bstar": 0.0016108,
        "meta_mean_motion_dot": 9.033e-05,
        "meta_mean_motion_ddot": 0,
        "tle_line1": "1 34671U 93036XR  25356.09954042  .00009033  00000+0  16108-2 0  9998",
        "tle_line2": "2 34671  74.0273 116.2253 0010753 197.1927 335.8650 14.67083344884345"
      },
      "geometry": {
        "type": "Point",
        "coordinates": [
          124.29886892249498,
          28.13688396974182
        ]
      }
    },
    {
      "type": "Feature",
      "properties": {
        "norad_id": 34672,
        "name": "COSMOS 2251 DEB",
        "group": "cosmos-2251-debris",
        "lat": -34.97291146664766,
        "lon": 119.2454644836075,
        "alt_km": 789.6467433443067,
        "timestamp": "2025-12-22T11:33:20.834955+00:00",
        "meta_object_name": "COSMOS 2251 DEB",
        "meta_object_id": "1993-036XS",
        "meta_epoch": "2025-12-18T13:28:46.255872",
        "meta_mean_motion": 14.36417673,
        "meta_eccentricity": 0.00241418,
        "meta_inclination": 74.0338,
        "meta_ra_of_asc_node": 294.8922,
        "meta_arg_of_pericenter": 5.7391,
        "meta_mean_anomaly": 109.133,
        "meta_ephemeris_type": 0,
        "meta_classification_type": "U",
        "meta_norad_cat_id": 34672,
        "meta_element_set_no": 999,
        "meta_rev_at_epoch": 65261,
        "meta_bstar": 0.00020838077,
        "meta_mean_motion_dot": 5.86e-06,
        "meta_mean_motion_ddot": 0,
        "tle_line1": "1 34672U 93036XS  25352.56164648  .00000586  00000+0  20838-3 0  9992",
        "tle_line2": "2 34672  74.0338 294.8922 0024141   5.7391 109.1330 14.36417673652611"
      },
      "geometry": {
        "type": "Point",
        "coordinates": [
          119.2454644836075,
          -34.97291146664766
        ]
      }
    },
    {
      "type": "Feature",
      "properties": {
        "norad_id": 34678,
        "name": "COSMOS 2251 DEB",
        "group": "cosmos-2251-debris",
        "lat": 2.5118397840475573,
        "lon": 167.26327544088463,
        "alt_km": 807.9058479693122,
        "timestamp": "2025-12-22T11:33:20.834964+00:00",
        "meta_object_name": "COSMOS 2251 DEB",
        "meta_object_id": "1993-036XY",
        "meta_epoch": "2025-12-20T18:41:52.747872",
        "meta_mean_motion": 14.30066309,
        "meta_eccentricity": 0.00246589,
        "meta_inclination": 74.0376,
        "meta_ra_of_asc_node": 351.0764,
        "meta_arg_of_pericenter": 37.6613,
        "meta_mean_anomaly": 18.542,
        "meta_ephemeris_type": 0,
        "meta_classification_type": "U",
        "meta_norad_cat_id": 34678,
        "meta_element_set_no": 999,
        "meta_rev_at_epoch": 87494,
        "meta_bstar": 2.2824328e-05,
        "meta_mean_motion_dot": 3.3e-07,
        "meta_mean_motion_ddot": 0,
        "tle_line1": "1 34678U 93036XY  25354.77908273  .00000033  00000+0  22824-4 0  9998",
        "tle_line2": "2 34678  74.0376 351.0764 0024658  37.6613  18.5420 14.30066309874948"
      },
      "geometry": {
        "type": "Point",
        "coordinates": [
          167.26327544088463,
          2.5118397840475573
        ]
      }
    },
    {
      "type": "Feature",
      "properties": {
        "norad_id": 34680,
        "name": "COSMOS 2251 DEB",
        "group": "cosmos-2251-debris",
        "lat": 73.97132147587517,
        "lon": -153.49755158668026,
        "alt_km": 685.7588175710634,
        "timestamp": "2025-12-22T11:33:20.834974+00:00",
        "meta_object_name": "COSMOS 2251 DEB",
        "meta_object_id": "1993-036YA",
        "meta_epoch": "2025-12-21T19:17:01.599072",
        "meta_mean_motion": 14.60709286,
        "meta_eccentricity": 0.0006439,
        "meta_inclination": 74.045,
        "meta_ra_of_asc_node": 112.5524,
        "meta_arg_of_pericenter": 213.4966,
        "meta_mean_anomaly": 274.1698,
        "meta_ephemeris_type": 0,
        "meta_classification_type": "U",
        "meta_norad_cat_id": 34680,
        "meta_element_set_no": 999,
        "meta_rev_at_epoch": 88460,
        "meta_bstar": 0.00086443,
        "meta_mean_motion_dot": 4.187e-05,
        "meta_mean_motion_ddot": 0,
        "tle_line1": "1 34680U 93036YA  25355.80349073  .00004187  00000+0  86443-3 0  9993",
        "tle_line2": "2 34680  74.0450 112.5524 0006439 213.4966 274.1698 14.60709286884602"
      },
      "geometry": {
        "type": "Point",
        "coordinates": [
          -153.49755158668026,
          73.97132147587517
        ]
      }
    }
  ]
}